STARLINK-31210          
1 59033U 24038L   24328.53873567  .00001795  00000+0  78451-4 0  9990
2 59033  43.0018 163.3652 0001077 280.2312  79.8418 15.25912304 42811
STARLINK-31231          
1 59034U 24038M   24328.92695298  .00009700  00000+0  37979-3 0  9990
2 59034  43.0016 161.1173 0001103 290.1381  69.9351 15.25944900 42701
STARLINK-31207          
1 59035U 24038N   24328.92470186  .00003605  00000+0  14753-3 0  9991
2 59035  42.9990 161.0966 0001106 289.5594  70.5137 15.25923846 42875
STARLINK-31217          
1 59036U 24038P   24328.91667824  .00165558  00000+0  23871-2 0  9994
2 59036  43.0011 125.9379 0012935 321.4069 238.1033 15.54602391  5916
STARLINK-31208          
1 59037U 24038Q   24328.89302861  .00003191  00000+0  13174-3 0  9999
2 59037  43.0014 160.8355 0001207 273.9666  86.1047 15.25916852 42876
STARLINK-31235          
1 59038U 24038R   24328.92241983  .00001231  00000+0  56864-4 0  9998
2 59038  43.0005 161.0701 0001225 264.7724  95.2987 15.25916139 42814
STARLINK-31220          
1 59039U 24038S   24328.88863930  .00000859  00000+0  42682-4 0  9994
2 59039  43.0018 161.7002 0001589 282.6335  77.4339 15.25917211 42804
STARLINK-31225          
1 59040U 24038T   24328.89953412  .00001815  00000+0  79180-4 0  9998
2 59040  43.0000 159.1361 0000753 265.2933  94.7832 15.25918538 42723
STARLINK-31240          
1 59041U 24038U   24328.94734746 -.00000762  00000+0 -19311-4 0  9994
2 59041  42.9950 161.2864 0001012  29.3371 330.7537 15.25900324 42833
STARLINK-31202          
1 59042U 24038V   24328.92908107  .00000479  00000+0  28156-4 0  9997
2 59042  43.0016 160.2782 0001156 275.0013  85.0706 15.25915457 42885
STARLINK-31234          
1 59043U 24038W   24328.54778155  .00000162  00000+0  16028-4 0  9998
2 59043  43.0011 163.4385 0001092 315.2318  44.8445 15.25915909 42592
STARLINK-31153          
1 59044U 24038X   24328.85244955  .00000094  00000+0  13426-4 0  9992
2 59044  43.0023 161.3960 0001128 275.2936  84.7786 15.25912523 42694
STARLINK-31241          
1 59045U 24038Y   24328.54551536  .00000661  00000+0  35108-4 0  9996
2 59045  43.0011 163.4170 0001291 271.2462  88.8241 15.25915308 42818
STARLINK-31205          
1 59046U 24038Z   24328.87053790  .00001869  00000+0  81231-4 0  9991
2 59046  42.9952 161.5601 0000901  14.8591 345.2286 15.25922115 42802
STARLINK-31265          
1 59074U 24041A   24328.63468628  .00022570  00000+0  86946-3 0  9999
2 59074  43.0032  88.0520 0001453 310.4291  49.6433 15.25931815 42268
STARLINK-31276          
1 59075U 24041B   24328.67993736  .00008855  00000+0  34789-3 0  9995
2 59075  42.9997  88.4169 0003006  26.5056 333.5948 15.25913512 42316
STARLINK-31259          
1 59076U 24041C   24328.41583016  .00000627  00000+0  33810-4 0  9998
2 59076  43.0056  89.8755 0001768 272.4202  87.6446 15.25913650 41175
STARLINK-31281          
1 59077U 24041D   24328.67539936 -.00000567  00000+0 -11808-4 0  9997
2 59077  43.0041  88.3796 0002464 265.4230  94.6340 15.25908854 42314
STARLINK-31274          
1 59078U 24041E   24328.69787773  .00001321  00000+0  60271-4 0  9999
2 59078  42.9983  87.6608 0000651 236.5899 123.4890 15.25941144 42273
STARLINK-31257          
1 59079U 24041F   24328.69562025  .00002037  00000+0  87687-4 0  9996
2 59079  43.0008  87.6485 0000831 265.2389  94.8367 15.25912555 42274
STARLINK-31299          
1 59080U 24041G   24329.13647855 -.00000661  00000+0 -85506-5 0  9995
2 59080  43.0051 359.3312 0002595 287.9072  72.1502 15.40689510 43361
STARLINK-31292          
1 59081U 24041H   24328.66636266  .00000124  00000+0  14569-4 0  9999
2 59081  43.0002  88.3017 0000502  56.4503 303.6396 15.25896857 42261
STARLINK-31286          
1 59082U 24041J   24328.72954636  .00001095  00000+0  51688-4 0  9992
2 59082  43.0031  87.9172 0000956 286.5758  73.4988 15.25915728 42350
STARLINK-31252          
1 59083U 24041K   24328.91667824  .00115958  00000+0  11699-2 0  9994
2 59083  43.0004  44.3302 0017147  38.0838 272.4648 15.64075250  5962
STARLINK-31261          
1 59084U 24041L   24328.69334935  .00001492  00000+0  66860-4 0  9993
2 59084  43.0017  87.6307 0001051 273.9526  86.1205 15.25920888 42326
STARLINK-31290          
1 59085U 24041M   24328.34872465  .00047456  00000+0  15389-2 0  9999
2 59085  42.9991  88.4877 0005994 358.1990   1.8840 15.31236544 42378
STARLINK-31279          
1 59086U 24041N   24328.69107418  .00004894  00000+0  19668-3 0  9991
2 59086  43.0048  87.6131 0002037 257.1397 102.9227 15.25933883 42322
STARLINK-31266          
1 59087U 24041P   24328.71823562  .00004315  00000+0  17464-3 0  9990
2 59087  43.0031  87.8092 0000969 247.3360 112.7389 15.25920753 42326
STARLINK-31313          
1 59088U 24041Q   24328.71597819  .00000933  00000+0  45511-4 0  9991
2 59088  43.0028  87.7910 0000803 268.8233  91.2526 15.25911421 42275
STARLINK-31307          
1 59089U 24041R   24328.80390375  .00002691  00000+0  11266-3 0  9992
2 59089  43.0031  86.7683 0003593 267.9020  92.1419 15.25922065 42355
STARLINK-31316          
1 59090U 24041S   24328.60534162  .00002701  00000+0  71889-4 0  9996
2 59090  43.0087  56.7089 0001836 276.0177  84.0470 15.40706659 42563
STARLINK-31310          
1 59092U 24041U   24328.64373006  .00001348  00000+0  61337-4 0  9993
2 59092  43.0013  88.1104 0000413 318.7758  41.3062 15.25913280 42263
STARLINK-31343          
1 59093U 24041V   24328.42473972  .00000760  00000+0  38878-4 0  9994
2 59093  43.0045  89.0667 0001322 287.4286  72.6421 15.25914846 42288
STARLINK-31295          
1 59095U 24041X   24328.70468078  .00006264  00000+0  24939-3 0  9995
2 59095  42.9988  87.7072 0000219 183.4493 176.6357 15.25869930 42273
STARLINK-31291          
1 59096U 24041Y   24326.45874062  .00000330  00000+0  22472-4 0  9999
2 59096  42.9989 100.1068 0001351 266.5193  93.5503 15.25908166 41935
STARLINK-31312          
1 59152U 24044A   24329.08446384 -.00000416  00000+0 -26939-5 0  9999
2 59152  43.0015 208.2619 0001812 278.8368  81.2283 15.40674112 42000
STARLINK-31308          
1 59153U 24044B   24328.70970234 -.00000683  00000+0 -90888-5 0  9994
2 59153  43.0048 213.2958 0001932 287.9370  72.1276 15.40695127 41960
STARLINK-31270          
1 59154U 24044C   24329.13768608  .00006999  00000+0  27702-3 0  9990
2 59154  43.0032 242.4758 0001320 284.9067  75.1638 15.25925932 41662
STARLINK-31341          
1 59155U 24044D   24329.11746022  .00000519  00000+0  29677-4 0  9991
2 59155  43.0003 243.2067 0000618 280.7302  79.3479 15.25912626 41595
STARLINK-31338          
1 59156U 24044E   24328.19878488  .00014187  00000+0  55107-3 0  9993
2 59156  42.9996 248.3586 0001239 256.2560 103.8153 15.25914833 41472
STARLINK-31334          
1 59157U 24044F   24328.78564604  .00000514  00000+0  29480-4 0  9996
2 59157  43.0023 245.0218 0001398 268.8927  91.1764 15.25912892 41564
STARLINK-31297          
1 59158U 24044G   24328.93903746  .00004537  00000+0  18309-3 0  9994
2 59158  42.9987 243.5636 0001594 179.9581 180.1270 15.25924833 41621
STARLINK-31182          
1 59159U 24044H   24328.19200098  .00005554  00000+0  22193-3 0  9999
2 59159  42.9978 248.3014 0001383 219.6340 140.4410 15.25923202 41507
STARLINK-31327          
1 59160U 24044J   24329.13313162  .00002148  00000+0  91860-4 0  9997
2 59160  43.0000 242.4414 0001563 266.9521  93.1151 15.25932631 41650
STARLINK-31256          
1 59161U 24044K   24329.10388194  .00004716  00000+0  18992-3 0  9999
2 59161  43.0002 243.1069 0001438 252.9584 107.1109 15.25928302 41640
STARLINK-31272          
1 59162U 24044L   24328.77433580  .00001541  00000+0  68707-4 0  9995
2 59162  42.9997 244.9318 0001130 276.3894  83.6828 15.25919591 41568
STARLINK-31278          
1 59163U 24044M   24329.09937452  .00000759  00000+0  38879-4 0  9996
2 59163  43.0019 243.0713 0001685 283.8708  76.1956 15.25909687 41594
STARLINK-31309          
1 59164U 24044N   24328.18069153  .00000316  00000+0  21897-4 0  9991
2 59164  43.0025 248.2124 0000732 310.0233  50.0554 15.25911029 41502
STARLINK-31325          
1 59165U 24044P   24328.17843358  .00003315  00000+0  13651-3 0  9998
2 59165  43.0006 248.1954 0001623 268.7798  91.2867 15.25907102 41474
STARLINK-31342          
1 59166U 24044Q   24326.21243399 -.00001872  00000+0 -61781-4 0  9997
2 59166  43.0029 259.2402 0001186 272.1257  87.9458 15.25895542 41207
STARLINK-31298          
1 59167U 24044R   24329.09031163  .00029562  00000+0  11334-2 0  9992
2 59167  43.0022 242.9960 0001817 264.0588  96.0056 15.25968340 41388
STARLINK-31322          
1 59168U 24044S   24327.16002875 -.00002451  00000+0 -83931-4 0  9991
2 59168  43.0009 253.4386 0001779 220.8556 139.2162 15.25890211 41351
STARLINK-31329          
1 59169U 24044T   24326.18301996 -.00000708  00000+0 -17238-4 0  9999
2 59169  43.0001 259.0008 0000870 246.6028 113.4732 15.25909428 41176
STARLINK-31340          
1 59170U 24044U   24327.98486833  .00001611  00000+0  45814-4 0  9997
2 59170  43.0002 225.9832 0001458 279.0897  80.9795 15.40703064 41715
STARLINK-31344          
1 59171U 24044V   24326.18075525  .00000206  00000+0  17740-4 0  9997
2 59171  43.0027 258.9828 0001533 249.3737 110.6949 15.25911470 41202
STARLINK-31348          
1 59172U 24044W   24329.02489033 -.00008748  00000+0 -20250-3 0  9997
2 59172  42.9992 211.3606 0001608 257.0094 103.0583 15.40682059 41748
STARLINK-31289          
1 59173U 24044X   24327.83304018  .00001257  00000+0  57868-4 0  9996
2 59173  43.0013 249.8755 0001367 260.1441  99.9256 15.25919268 41455
STARLINK-31283          
1 59174U 24044Y   24328.91667824  .00064552  00000+0  15417-2 0  9993
2 59174  42.9995 212.2239 0001980 251.5195 128.1401 15.40656836  5919
STARLINK-31439          
1 59178U 24045A   24328.80990978 -.00000044  00000+0  61997-5 0  9999
2 59178  42.9998 241.5950 0001312 248.2677 111.8040 15.40698587 41038
